STARLINK-2438
1 18103C 21027M   21326.16874883 -.00017041  00000-0 -11420-2 0  3266
2 18103  53.0507 352.9826 0001691  52.4835 242.9877 15.06407987    14
